[{"OBJECT_NAME":"TIANMU-1 07","OBJECT_ID":"2023-101A","EPOCH":"2026-03-06T13:47:20.454720","MEAN_MOTION":15.29118809,"ECCENTRICITY":0.00046097,"INCLINATION":97.2728,"RA_OF_ASC_NODE":118.5929,"ARG_OF_PERICENTER":142.4105,"MEAN_ANOMALY":217.7458,"EPHEMERIS_TYPE":0,"CLASSIFICATION_TYPE":"U","NORAD_CAT_ID":57399,"ELEMENT_SET_NO":999,"REV_AT_EPOCH":14596,"BSTAR":0.00029794732,"MEAN_MOTION_DOT":8.352e-5,"MEAN_MOTION_DDOT":0},{"OBJECT_NAME":"STARLINK-30456","OBJECT_ID":"2023-148J","EPOCH":"2026-03-09T06:12:30.918816","MEAN_MOTION":15.3019051,"ECCENTRICITY":0.00011488,"INCLINATION":53.1621,"RA_OF_ASC_NODE":26.4758,"ARG_OF_PERICENTER":104.118,"MEAN_ANOMALY":255.9948,"EPHEMERIS_TYPE":0,"CLASSIFICATION_TYPE":"U","NORAD_CAT_ID":57943,"ELEMENT_SET_NO":999,"REV_AT_EPOCH":13835,"BSTAR":4.880448e-6,"MEAN_MOTION_DOT":-2.15e-6,"MEAN_MOTION_DDOT":0}]
